BEIDOU 3 (C01)          
1 36287U 10001A   22035.39132113 -.00000291  00000+0  00000+0 0  9994
2 36287   1.8540  46.9930 0001910  29.4423 339.3414  1.00272575 44185
BEIDOU 5 (C06)          
1 36828U 10036A   22035.23000179 -.00000126  00000+0  00000+0 0  9999
2 36828  54.1906 177.4507 0027432 179.2263 328.4166  1.00285010 42242
BEIDOU 6 (C04)          
1 37210U 10057A   22035.65266492 -.00000122  00000+0  00000+0 0  9992
2 37210   0.9289  52.1965 0004969 160.6616 316.8927  1.00271785 41300
BEIDOU 7 (C07)          
1 37256U 10068A   22035.21726222 -.00000187  00000+0  00000+0 0  9999
2 37256  50.4487 291.2405 0017552 188.3026 200.1011  1.00292156 40818
BEIDOU 8 (C08)          
1 37384U 11013A   22034.57274473 -.00000167  00000+0  00000+0 0  9994
2 37384  60.1035  55.5883 0020893 194.2425 197.4212  1.00291202 39684
BEIDOU 9 (C09)          
1 37763U 11038A   22035.37539054 -.00000072  00000+0  00000+0 0  9995
2 37763  54.4754 179.9254 0088076 225.2412 319.0022  1.00262173 38663
BEIDOU 10 (C10)         
1 37948U 11073A   22035.22332703 -.00000142  00000+0  00000+0 0  9993
2 37948  50.5616 290.8745 0077093 218.8731 160.4598  1.00282868 37421
BEIDOU 11 (C05)         
1 38091U 12008A   22035.54387483  .00000047  00000+0  00000+0 0  9995
2 38091   2.0686  72.1503 0008101 284.8962  32.1614  1.00267808 36493
BEIDOU 12 (C11)         
1 38250U 12018A   22034.64847499 -.00000102  00000+0  00000+0 0  9994
2 38250  56.7259 357.9788 0024215 256.0605 244.1698  1.86234394 66599
BEIDOU 13 (C12)         
1 38251U 12018B   22035.08930311 -.00000103  00000+0  00000+0 0  9991
2 38251  56.6466 357.2982 0015296 260.9330 219.1277  1.86234230 66602
BEIDOU 15 (C14)         
1 38775U 12050B   22034.77728968 -.00000016  00000+0  00000+0 0  9999
2 38775  55.3249 116.1864 0012739 320.5030 147.1721  1.86231301 63975
BEIDOU 16 (C02)         
1 38953U 12059A   22030.84355056 -.00000183  00000+0  00000+0 0  9999
2 38953   1.6498  84.5813 0012340 280.5575 152.5451  1.00269335 34020
BEIDOU 17 (C31)         
1 40549U 15019A   22033.61980693 -.00000181  00000+0  00000+0 0  9999
2 40549  52.1163 314.3225 0035519 190.7172 307.0484  1.00271426 25086
BEIDOU 18 (C57)         
1 40748U 15037A   22033.78111675 -.00000103  00000+0  00000+0 0  9998
2 40748  55.9024 356.2883 0004836 340.3319 252.2874  1.86233363 44406
BEIDOU 19 (C58)         
1 40749U 15037B   22034.57487597 -.00000104  00000+0  00000+0 0  9997
2 40749  55.9057 356.2514 0007047 315.5250 224.3333  1.86231964 44415
BEIDOU 20 (C18)         
1 40938U 15053A   22035.21923213 -.00000114  00000+0  00000+0 0  9998
2 40938  51.7039 277.4033 0042946 193.6521 198.4812  1.00276535 23376
BEIDOU IGSO-6 (C13)     
1 41434U 16021A   22035.47913928 -.00000143  00000+0  00000+0 0  9998
2 41434  57.9077  54.2116 0044668 218.2724 129.9751  1.00267820 21492
BEIDOU-2 G7 (C03)       
1 41586U 16037A   22035.55416657 -.00000364  00000+0  00000+0 0  9994
2 41586   1.6832  67.5084 0008553 359.6960  17.5109  1.00270894 20810
BEIDOU-3 M1 (C19)       
1 43001U 17069A   22035.44765850 -.00000018  00000+0  00000+0 0  9990
2 43001  55.4781 116.1471 0009736 284.3929  68.8859  1.86231600 28914
BEIDOU-3 M2 (C20)       
1 43002U 17069B   22035.26720431 -.00000017  00000+0  00000+0 0  9996
2 43002  55.4771 116.1893 0007512 306.8018 328.6706  1.86231358 28908
BEIDOU-3 M3 (C27)       
1 43107U 18003A   22035.41487439 -.00000105  00000+0  00000+0 0  9994
2 43107  55.3500 357.2097 0004320  35.9488 144.5317  1.86232461 27674
BEIDOU-3 M4 (C28)       
1 43108U 18003B   22035.11268593 -.00000105  00000+0  00000+0 0  9990
2 43108  55.3430 357.2101 0003822 267.6980 114.8158  1.86230897 27674
BEIDOU-3 M5 (C21)       
1 43207U 18018A   22035.52543904 -.00000019  00000+0  00000+0 0  9997
2 43207  55.4373 116.2631 0004702 329.5537  30.4661  1.86231499 27060
BEIDOU-3 M6 (C22)       
1 43208U 18018B   22034.51821035 -.00000015  00000+0  00000+0 0  9996
2 43208  55.4356 116.3012 0007448 294.2382  65.7291  1.86231662 27042
BEIDOU-3 M7 (C29)       
1 43245U 18029A   22035.55453157 -.00000106  00000+0  00000+0 0  9991
2 43245  55.2703 354.9827 0001480 310.7288 233.7279  1.86232546 26213
BEIDOU-3 M8 (C30)       
1 43246U 18029B   22035.53135987 -.00000106  00000+0  10000-3 0  9993
2 43246  55.2676 355.0148 0004890 343.2928 232.0537  1.86232789 26208
BEIDOU IGSO-7 (C16)     
1 43539U 18057A   22033.82271594 -.00000136  00000+0  00000+0 0  9992
2 43539  55.0711 176.8947 0041201 220.6993 142.1120  1.00251155 13168
BEIDOU-3 M9 (C23)       
1 43581U 18062A   22035.21858220  .00000034  00000+0  00000+0 0  9993
2 43581  54.3179 236.6481 0002527 327.0631 249.2129  1.86231907 23944
BEIDOU-3 M10 (C24)      
1 43582U 18062B   22033.95188454  .00000037  00000+0  00000+0 0  9991
2 43582  54.3176 236.6815 0006982  19.7371 158.9336  1.86232292 23920
BEIDOU-3 M11 (C25)      
1 43602U 18067A   22035.52902928  .00000036  00000+0  00000+0 0  9993
2 43602  54.3973 235.2301 0007970  13.4644 184.2519  1.86231598 23445
BEIDOU-3 M12 (C26)      
1 43603U 18067B   22034.82480098  .00000035  00000+0  00000+0 0  9994
2 43603  54.3942 235.2212 0004992   9.1645 346.8035  1.86231573 23449
BEIDOU-3 M13 (C32)      
1 43622U 18072A   22035.31785498 -.00000018  00000+0  00000+0 0  9990
2 43622  55.4032 115.8306 0006458 277.2405  78.9849  1.86231427 22960
BEIDOU-3 M14 (C33)      
1 43623U 18072B   22034.19456235 -.00000015  00000+0  00000+0 0  9997
2 43623  55.4043 115.8595 0003961 300.4251 112.9217  1.86231432 22950
BEIDOU-3 M15 (C34)      
1 43647U 18078A   22034.53609375 -.00000105  00000+0  10000-3 0  9997
2 43647  55.1646 355.1877 0007392 352.4251 185.2716  1.86232431 22466
BEIDOU-3 M16 (C35)      
1 43648U 18078B   22035.14788098 -.00000106  00000+0  00000+0 0  9992
2 43648  55.1614 355.1739 0005017 357.0720 138.8460  1.86232249 22493
BEIDOU-3 G1 (C59)       
1 43683U 18085A   22035.57618936 -.00000289  00000+0  00000+0 0  9991
2 43683   0.8405 190.1847 0002121  30.7074 261.1812  1.00267589 12079
BEIDOU-3 M17 (C36)      
1 43706U 18093A   22035.09744209  .00000034  00000+0  00000+0 0  9993
2 43706  54.3993 236.5264 0007205 285.4954  74.4464  1.86231950 21854
BEIDOU-3 M18 (C37)      
1 43707U 18093B   22033.78141584  .00000038  00000+0  00000+0 0  9999
2 43707  54.3999 236.5633 0007294 319.7317 328.9657  1.86232213 21813
BEIDOU-3 IGSO-1 (C38)   
1 44204U 19023A   22029.85135339 -.00000200  00000+0  00000+0 0  9992
2 44204  56.3528  54.4654 0022402 195.5888 301.4486  1.00252795 10320
BEIDOU-2 G8             
1 44231U 19027A   22035.64022990 -.00000257  00000+0  00000+0 0  9990
2 44231   0.5537  67.1101 0005881 145.6510 297.0387  1.00271585 10091
BEIDOU-3 IGSO-2 (C39)   
1 44337U 19035A   22035.28921123 -.00000138  00000+0  00000+0 0  9990
2 44337  55.1120 172.9107 0022489 187.6840 354.7902  1.00293805  9718
BEIDOU-3 M23 (C45)      
1 44542U 19061A   22035.56971301  .00000035  00000+0  00000+0 0  9996
2 44542  54.6254 236.6262 0008611 353.9419   6.0677  1.86231432 16119
BEIDOU-3 M24 (C46)      
1 44543U 19061B   22035.45462542  .00000035  00000+0  00000+0 0  9997
2 44543  54.6222 236.6006 0005823 351.1652 202.8120  1.86231816 16106
BEIDOU-3 IGSO-3         
1 44709U 19073A   22034.70214623 -.00000175  00000+0  00000+0 0  9992
2 44709  57.4804 297.7742 0019772 175.4556  30.3377  1.00295679  8461
BEIDOU-3 M21            
1 44793U 19078A   22035.14146679 -.00000106  00000+0  10000-3 0  9993
2 44793  55.0131 355.2061 0006982 357.4244 180.2632  1.86232188 14961
BEIDOU-3 M22            
1 44794U 19078B   22033.93128959 -.00000105  00000+0  00000+0 0  9994
2 44794  54.9880 355.2415 0004978 350.2900   7.4397  1.86232728 14932
BEIDOU-3 M19            
1 44864U 19090A   22033.73125822 -.00000015  00000+0  00000+0 0  9990
2 44864  55.3366 116.1012 0017146 265.3548 152.7894  1.86231671 14523
BEIDOU-3 M20            
1 44865U 19090B   22034.03365491 -.00000015  00000+0  00000+0 0  9993
2 44865  55.3392 116.1230 0014695 279.1122  71.6704  1.86231746 14490
BEIDOU-3 G2             
1 45344U 20017A   22035.54806130 -.00000149  00000+0  00000+0 0  9992
2 45344   2.1686 345.7748 0001289  58.5509   7.6634  1.00272415  7280
BEIDOU-3 G3             
1 45807U 20040A   22035.59285352 -.00000363  00000+0  00000+0 0  9992
2 45807   1.7456 300.3720 0008170 348.8765 169.4087  1.00271432  6103
